[
  {
    "OBJECT_NAME": "STARLINK-1031",
    "OBJECT_ID": "19074Z",
    "EPOCH": "2025-11-11T05:56:54.714336",
    "MEAN_MOTION": 15.49982367,
    "ECCENTRICITY": 0.0006089,
    "INCLINATION": 53.05,
    "RA_OF_ASC_NODE": 344.4087,
    "ARG_OF_PERICENTER": 315.5777,
    "MEAN_ANOMALY": 44.4742,
    "EPHEMERIS_TYPE": 0,
    "CLASSIFICATION_TYPE": "U",
    "NORAD_CAT_ID": 44736,
    "ELEMENT_SET_NO": 999,
    "REV_AT_EPOCH": 33110,
    "BSTAR": 0.0021848,
    "MEAN_MOTION_DOT": 0.00126082,
    "MEAN_MOTION_DDOT": 0.0,
    "TLE_LINE1": "1 44736U 19074Z   25315.24785549  .00126082  00000+0  21848-2 0  9998",
    "TLE_LINE2": "2 44736  53.0500 344.4087 0006089 315.5777  44.4742 15.49982367331104",
    "COMMENT": "Grouped by shell and plane from TLE"
  },
  {
    "OBJECT_NAME": "STARLINK-1471",
    "OBJECT_ID": "20038F",
    "EPOCH": "2025-11-11T06:05:39.196896",
    "MEAN_MOTION": 15.41428275,
    "ECCENTRICITY": 7.7e-05,
    "INCLINATION": 53.052,
    "RA_OF_ASC_NODE": 345.9387,
    "ARG_OF_PERICENTER": 87.8073,
    "MEAN_ANOMALY": 272.3019,
    "EPHEMERIS_TYPE": 0,
    "CLASSIFICATION_TYPE": "U",
    "NORAD_CAT_ID": 45735,
    "ELEMENT_SET_NO": 999,
    "REV_AT_EPOCH": 29922,
    "BSTAR": 0.00064913,
    "MEAN_MOTION_DOT": 0.00027258,
    "MEAN_MOTION_DDOT": 0.0,
    "TLE_LINE1": "1 45735U 20038F   25315.25392589  .00027258  00000+0  64913-3 0  9995",
    "TLE_LINE2": "2 45735  53.0520 345.9387 0000770  87.8073 272.3019 15.41428275299224",
    "COMMENT": "Grouped by shell and plane from TLE"
  },
  {
    "OBJECT_NAME": "STARLINK-1504",
    "OBJECT_ID": "20038S",
    "EPOCH": "2025-11-11T06:33:55.821600",
    "MEAN_MOTION": 15.41219866,
    "ECCENTRICITY": 0.0001685,
    "INCLINATION": 53.028,
    "RA_OF_ASC_NODE": 348.9622,
    "ARG_OF_PERICENTER": 304.0724,
    "MEAN_ANOMALY": 56.012,
    "EPHEMERIS_TYPE": 0,
    "CLASSIFICATION_TYPE": "U",
    "NORAD_CAT_ID": 45746,
    "ELEMENT_SET_NO": 999,
    "REV_AT_EPOCH": 29917,
    "BSTAR": 0.0014344000000000002,
    "MEAN_MOTION_DOT": 0.00060571,
    "MEAN_MOTION_DDOT": 0.0,
    "TLE_LINE1": "1 45746U 20038S   25315.27356275  .00060571  00000+0  14344-2 0  9998",
    "TLE_LINE2": "2 45746  53.0280 348.9622 0001685 304.0724  56.0120 15.41219866299175",
    "COMMENT": "Grouped by shell and plane from TLE"
  },
  {
    "OBJECT_NAME": "STARLINK-1648",
    "OBJECT_ID": "20070B",
    "EPOCH": "2025-11-11T05:54:38.629152",
    "MEAN_MOTION": 15.40919191,
    "ECCENTRICITY": 0.0003158,
    "INCLINATION": 53.0537,
    "RA_OF_ASC_NODE": 343.9091,
    "ARG_OF_PERICENTER": 49.8383,
    "MEAN_ANOMALY": 310.2898,
    "EPHEMERIS_TYPE": 0,
    "CLASSIFICATION_TYPE": "U",
    "NORAD_CAT_ID": 46533,
    "ELEMENT_SET_NO": 999,
    "REV_AT_EPOCH": 28171,
    "BSTAR": 0.0029627,
    "MEAN_MOTION_DOT": 0.00125364,
    "MEAN_MOTION_DDOT": 0.0,
    "TLE_LINE1": "1 46533U 20070B   25315.24628043  .00125364  00000+0  29627-2 0  9993",
    "TLE_LINE2": "2 46533  53.0537 343.9091 0003158  49.8383 310.2898 15.40919191281717",
    "COMMENT": "Grouped by shell and plane from TLE"
  },
  {
    "OBJECT_NAME": "STARLINK-1663",
    "OBJECT_ID": "20070D",
    "EPOCH": "2025-11-11T06:34:40.447200",
    "MEAN_MOTION": 15.36876415,
    "ECCENTRICITY": 0.0004623,
    "INCLINATION": 53.0541,
    "RA_OF_ASC_NODE": 343.6946,
    "ARG_OF_PERICENTER": 26.7788,
    "MEAN_ANOMALY": 333.3452,
    "EPHEMERIS_TYPE": 0,
    "CLASSIFICATION_TYPE": "U",
    "NORAD_CAT_ID": 46535,
    "ELEMENT_SET_NO": 999,
    "REV_AT_EPOCH": 28171,
    "BSTAR": 0.0030381,
    "MEAN_MOTION_DOT": 0.00112436,
    "MEAN_MOTION_DDOT": 0.0,
    "TLE_LINE1": "1 46535U 20070D   25315.27407925  .00112436  00000+0  30381-2 0  9997",
    "TLE_LINE2": "2 46535  53.0541 343.6946 0004623  26.7788 333.3452 15.36876415281719",
    "COMMENT": "Grouped by shell and plane from TLE"
  },
  {
    "OBJECT_NAME": "STARLINK-1672",
    "OBJECT_ID": "20070F",
    "EPOCH": "2025-11-11T06:47:41.199072",
    "MEAN_MOTION": 15.38377403,
    "ECCENTRICITY": 0.0003661,
    "INCLINATION": 53.0552,
    "RA_OF_ASC_NODE": 343.4742,
    "ARG_OF_PERICENTER": 47.8681,
    "MEAN_ANOMALY": 312.2633,
    "EPHEMERIS_TYPE": 0,
    "CLASSIFICATION_TYPE": "U",
    "NORAD_CAT_ID": 46537,
    "ELEMENT_SET_NO": 999,
    "REV_AT_EPOCH": 28172,
    "BSTAR": 0.0019033000000000001,
    "MEAN_MOTION_DOT": 0.00073424,
    "MEAN_MOTION_DDOT": 0.0,
    "TLE_LINE1": "1 46537U 20070F   25315.28311573  .00073424  00000+0  19033-2 0  9997",
    "TLE_LINE2": "2 46537  53.0552 343.4742 0003661  47.8681 312.2633 15.38377403281725",
    "COMMENT": "Grouped by shell and plane from TLE"
  },
  {
    "OBJECT_NAME": "STARLINK-1676",
    "OBJECT_ID": "20070AA",
    "EPOCH": "2025-11-11T06:44:03.965280",
    "MEAN_MOTION": 15.29273624,
    "ECCENTRICITY": 0.0003652,
    "INCLINATION": 53.0575,
    "RA_OF_ASC_NODE": 344.2961,
    "ARG_OF_PERICENTER": 20.5433,
    "MEAN_ANOMALY": 339.5712,
    "EPHEMERIS_TYPE": 0,
    "CLASSIFICATION_TYPE": "U",
    "NORAD_CAT_ID": 46556,
    "ELEMENT_SET_NO": 999,
    "REV_AT_EPOCH": 28171,
    "BSTAR": 0.0032434000000000004,
    "MEAN_MOTION_DOT": 0.00094206,
    "MEAN_MOTION_DDOT": 0.0,
    "TLE_LINE1": "1 46556U 20070AA  25315.28060145  .00094206  00000+0  32434-2 0  9995",
    "TLE_LINE2": "2 46556  53.0575 344.2961 0003652  20.5433 339.5712 15.29273624281715",
    "COMMENT": "Grouped by shell and plane from TLE"
  },
  {
    "OBJECT_NAME": "STARLINK-1531",
    "OBJECT_ID": "20070AS",
    "EPOCH": "2025-11-11T06:33:49.485024",
    "MEAN_MOTION": 15.29701157,
    "ECCENTRICITY": 0.0004255,
    "INCLINATION": 53.0592,
    "RA_OF_ASC_NODE": 343.986,
    "ARG_OF_PERICENTER": 45.8321,
    "MEAN_ANOMALY": 314.3028,
    "EPHEMERIS_TYPE": 0,
    "CLASSIFICATION_TYPE": "U",
    "NORAD_CAT_ID": 46572,
    "ELEMENT_SET_NO": 999,
    "REV_AT_EPOCH": 28171,
    "BSTAR": 0.0029346,
    "MEAN_MOTION_DOT": 0.00086248,
    "MEAN_MOTION_DDOT": 0.0,
    "TLE_LINE1": "1 46572U 20070AS  25315.27348941  .00086248  00000+0  29346-2 0  9990",
    "TLE_LINE2": "2 46572  53.0592 343.9860 0004255  45.8321 314.3028 15.29701157281710",
    "COMMENT": "Grouped by shell and plane from TLE"
  },
  {
    "OBJECT_NAME": "STARLINK-30123",
    "OBJECT_ID": "23079R",
    "EPOCH": "2025-11-11T03:03:42.517152",
    "MEAN_MOTION": 15.27583479,
    "ECCENTRICITY": 2.3e-05,
    "INCLINATION": 43.003,
    "RA_OF_ASC_NODE": 343.5117,
    "ARG_OF_PERICENTER": 234.1023,
    "MEAN_ANOMALY": 125.9808,
    "EPHEMERIS_TYPE": 0,
    "CLASSIFICATION_TYPE": "U",
    "NORAD_CAT_ID": 56838,
    "ELEMENT_SET_NO": 999,
    "REV_AT_EPOCH": 13561,
    "BSTAR": 4.7574e-05,
    "MEAN_MOTION_DOT": 1.048e-05,
    "MEAN_MOTION_DDOT": 0.0,
    "TLE_LINE1": "1 56838U 23079R   25315.12757543  .00001048  00000+0  47574-4 0  9994",
    "TLE_LINE2": "2 56838  43.0030 343.5117 0000230 234.1023 125.9808 15.27583479135616",
    "COMMENT": "Grouped by shell and plane from TLE"
  },
  {
    "OBJECT_NAME": "STARLINK-30105",
    "OBJECT_ID": "23105D",
    "EPOCH": "2025-11-11T01:35:51.819936",
    "MEAN_MOTION": 15.27588692,
    "ECCENTRICITY": 0.0001584,
    "INCLINATION": 43.003,
    "RA_OF_ASC_NODE": 340.7538,
    "ARG_OF_PERICENTER": 290.1158,
    "MEAN_ANOMALY": 69.9524,
    "EPHEMERIS_TYPE": 0,
    "CLASSIFICATION_TYPE": "U",
    "NORAD_CAT_ID": 57433,
    "ELEMENT_SET_NO": 999,
    "REV_AT_EPOCH": 13018,
    "BSTAR": 6.585e-05,
    "MEAN_MOTION_DOT": 1.551e-05,
    "MEAN_MOTION_DDOT": 0.0,
    "TLE_LINE1": "1 57433U 23105D   25315.06657199  .00001551  00000+0  65850-4 0  9991",
    "TLE_LINE2": "2 57433  43.0030 340.7538 0001584 290.1158  69.9524 15.27588692130189",
    "COMMENT": "Grouped by shell and plane from TLE"
  },
  {
    "OBJECT_NAME": "STARLINK-30607",
    "OBJECT_ID": "23161C",
    "EPOCH": "2025-11-11T06:49:24.415104",
    "MEAN_MOTION": 15.30189616,
    "ECCENTRICITY": 0.0001168,
    "INCLINATION": 53.1626,
    "RA_OF_ASC_NODE": 345.489,
    "ARG_OF_PERICENTER": 61.384,
    "MEAN_ANOMALY": 298.7278,
    "EPHEMERIS_TYPE": 0,
    "CLASSIFICATION_TYPE": "U",
    "NORAD_CAT_ID": 58099,
    "ELEMENT_SET_NO": 999,
    "REV_AT_EPOCH": 11642,
    "BSTAR": 0.00010959000000000001,
    "MEAN_MOTION_DOT": 2.887e-05,
    "MEAN_MOTION_DDOT": 0.0,
    "TLE_LINE1": "1 58099U 23161C   25315.28431036  .00002887  00000+0  10959-3 0  9998",
    "TLE_LINE2": "2 58099  53.1626 345.4890 0001168  61.3840 298.7278 15.30189616116424",
    "COMMENT": "Grouped by shell and plane from TLE"
  },
  {
    "OBJECT_NAME": "STARLINK-30616",
    "OBJECT_ID": "23161J",
    "EPOCH": "2025-11-11T06:33:14.836896",
    "MEAN_MOTION": 15.30202452,
    "ECCENTRICITY": 0.0001048,
    "INCLINATION": 53.163,
    "RA_OF_ASC_NODE": 342.461,
    "ARG_OF_PERICENTER": 104.2033,
    "MEAN_ANOMALY": 255.9085,
    "EPHEMERIS_TYPE": 0,
    "CLASSIFICATION_TYPE": "U",
    "NORAD_CAT_ID": 58105,
    "ELEMENT_SET_NO": 999,
    "REV_AT_EPOCH": 11646,
    "BSTAR": 0.00012254,
    "MEAN_MOTION_DOT": 3.272e-05,
    "MEAN_MOTION_DDOT": 0.0,
    "TLE_LINE1": "1 58105U 23161J   25315.27308839  .00003272  00000+0  12254-3 0  9998",
    "TLE_LINE2": "2 58105  53.1630 342.4610 0001048 104.2033 255.9085 15.30202452116461",
    "COMMENT": "Grouped by shell and plane from TLE"
  },
  {
    "OBJECT_NAME": "STARLINK-30612",
    "OBJECT_ID": "23161K",
    "EPOCH": "2025-11-11T02:01:43.663296",
    "MEAN_MOTION": 15.30190336,
    "ECCENTRICITY": 0.0001138,
    "INCLINATION": 53.161,
    "RA_OF_ASC_NODE": 343.4348,
    "ARG_OF_PERICENTER": 78.3587,
    "MEAN_ANOMALY": 281.7541,
    "EPHEMERIS_TYPE": 0,
    "CLASSIFICATION_TYPE": "U",
    "NORAD_CAT_ID": 58106,
    "ELEMENT_SET_NO": 999,
    "REV_AT_EPOCH": 11644,
    "BSTAR": 0.00016325,
    "MEAN_MOTION_DOT": 4.477e-05,
    "MEAN_MOTION_DDOT": 0.0,
    "TLE_LINE1": "1 58106U 23161K   25315.08453314  .00004477  00000+0  16325-3 0  9998",
    "TLE_LINE2": "2 58106  53.1610 343.4348 0001138  78.3587 281.7541 15.30190336116443",
    "COMMENT": "Grouped by shell and plane from TLE"
  }
]